JILIN-1 GAOFEN 3A       
1 44312U 19032C   26186.26766051  .00015982  00000+0  49933-3 0  9990
2 44312  44.9740 257.4019 0005000  34.1276 325.9929 15.33047198390619
JILIN-1 GAOFEN 2A       
1 44777U 19075A   26186.26910679  .00020747  00000+0  52412-3 0  9990
2 44777  97.4958 270.4873 0006175  30.9619 329.1990 15.39822752367666
JILIN-1 GAOFEN 2B       
1 44836U 19086A   26186.17549011  .00009729  00000+0  44181-3 0  9997
2 44836  97.4869 258.0554 0012533 253.9145 106.0711 15.20921025363221
JILIN-1 GAOFEN 3E       
1 46457U 20065D   26186.19222531  .00104891  00000+0  10109-2 0  9992
2 46457  97.2219 239.2439 0011646 103.1098 257.1463 15.66098688322574
JILIN-1 GAOFEN 3F       
1 46458U 20065E   26186.18641559  .00091310  00000+0  99506-3 0  9997
2 46458  97.2176 236.4833 0013065  90.7036 269.5720 15.63003588322513
JILIN-1 GAOFEN 3G       
1 46459U 20065F   26186.21547306  .00152039  00000+0  10084-2 0  9996
2 46459  97.2237 243.6373 0004861 333.8865  26.2154 15.75035818322777
JILIN-1 GAOFEN 3H       
1 46460U 20065G   26186.23075275  .00130385  00000+0  10373-2 0  9992
2 46460  97.2179 239.8628 0004806 239.9941 120.0845 15.70800702322715
JILIN-1 GAOFEN 2D       
1 49256U 21086A   26186.17605701  .00007128  00000+0  42692-3 0  9996
2 49256  97.6497 308.8865 0034503  83.7091 276.8067 15.10806597263437
JILIN-1 GAOFEN 2F       
1 49338U 21097A   26186.28494660  .00006412  00000+0  42026-3 0  9997
2 49338  97.6729 312.4430 0019208 161.5012 198.6918 15.07899893259043
JILIN-1 GAOFEN 3D27     
1 52444U 22048B   26186.16986305  .00225952  00000+0  11767-2 0  9994
2 52444  97.5721 301.7992 0003770 270.2543  89.8292 15.80304935232310
JILIN-1 GAOFEN 3D28     
1 52445U 22048C   26186.19245347  .00270537  00000+0  11557-2 0  9998
2 52445  97.5670 302.0597 0003577 258.5715 101.5153 15.84472033232377
JILIN-1 GAOFEN 3D29     
1 52446U 22048D   26186.28264553  .00195724  00000+0  10129-2 0  9997
2 52446  97.5717 302.2858 0003403 242.8336 117.2585 15.80524196232350
JILIN-1 GAOFEN 3D31     
1 52448U 22048F   26186.24476245  .00324310  40403-4  11487-2 0  9997
2 52448  97.5702 303.4414 0004053 247.6276 112.4567 15.88997802232448
JILIN-1 GAOFEN 03D09    
1 53445U 22098B   26186.33900269  .00085998  00000+0  74065-3 0  9990
2 53445  97.5619 317.4045 0002659 265.8349  94.2608 15.69024088217476
JILIN-1 GAOFEN 03D43    
1 53448U 22098E   26186.33768659  .00104287  00000+0  77509-3 0  9997
2 53448  97.5603 318.5083 0002926 256.8885 103.2052 15.72513838217540
JILIN-1 GAOFEN 03D08    
1 54251U 22155A   26186.31764161  .00072435  00000+0  68990-3 0  9999
2 54251  97.6228 333.1908 0003685 263.1004  96.9837 15.66579420202650
