{"fetched_at":"2026-07-05T16:24:32.959Z","source":"https://celestrak.org/NORAD/elements/gp.php?NAME=JILIN&FORMAT=JSON","constellation":"jilin-1-gaofen","records":[{"OBJECT_NAME":"JILIN-1 GAOFEN 3A","OBJECT_ID":"2019-032C","EPOCH":"2026-07-05T06:25:25.868064","CLASSIFICATION_TYPE":"U","MEAN_MOTION":15.33047198,"ECCENTRICITY":0.00050003,"INCLINATION":44.974,"RA_OF_ASC_NODE":257.4019,"ARG_OF_PERICENTER":34.1276,"MEAN_ANOMALY":325.9929,"EPHEMERIS_TYPE":0,"NORAD_CAT_ID":44312,"ELEMENT_SET_NO":999,"REV_AT_EPOCH":39061,"BSTAR":0.00049932757,"MEAN_MOTION_DOT":0.00015982,"MEAN_MOTION_DDOT":0},{"OBJECT_NAME":"JILIN-1 GAOFEN 2A","OBJECT_ID":"2019-075A","EPOCH":"2026-07-05T06:27:30.826656","CLASSIFICATION_TYPE":"U","MEAN_MOTION":15.39822752,"ECCENTRICITY":0.00061758,"INCLINATION":97.4958,"RA_OF_ASC_NODE":270.4873,"ARG_OF_PERICENTER":30.9619,"MEAN_ANOMALY":329.199,"EPHEMERIS_TYPE":0,"NORAD_CAT_ID":44777,"ELEMENT_SET_NO":999,"REV_AT_EPOCH":36766,"BSTAR":0.00052412105,"MEAN_MOTION_DOT":0.00020747,"MEAN_MOTION_DDOT":0},{"OBJECT_NAME":"JILIN-1 GAOFEN 2B","OBJECT_ID":"2019-086A","EPOCH":"2026-07-05T04:12:42.345504","CLASSIFICATION_TYPE":"U","MEAN_MOTION":15.20921025,"ECCENTRICITY":0.0012533,"INCLINATION":97.4869,"RA_OF_ASC_NODE":258.0554,"ARG_OF_PERICENTER":253.9145,"MEAN_ANOMALY":106.0711,"EPHEMERIS_TYPE":0,"NORAD_CAT_ID":44836,"ELEMENT_SET_NO":999,"REV_AT_EPOCH":36322,"BSTAR":0.00044180625,"MEAN_MOTION_DOT":0.00009729,"MEAN_MOTION_DDOT":0},{"OBJECT_NAME":"JILIN-1 GAOFEN 3E","OBJECT_ID":"2020-065D","EPOCH":"2026-07-05T04:36:48.266784","CLASSIFICATION_TYPE":"U","MEAN_MOTION":15.66098688,"ECCENTRICITY":0.00116462,"INCLINATION":97.2219,"RA_OF_ASC_NODE":239.2439,"ARG_OF_PERICENTER":103.1098,"MEAN_ANOMALY":257.1463,"EPHEMERIS_TYPE":0,"NORAD_CAT_ID":46457,"ELEMENT_SET_NO":999,"REV_AT_EPOCH":32257,"BSTAR":0.0010108766,"MEAN_MOTION_DOT":0.00104891,"MEAN_MOTION_DDOT":0},{"OBJECT_NAME":"JILIN-1 GAOFEN 3F","OBJECT_ID":"2020-065E","EPOCH":"2026-07-05T04:28:26.306976","CLASSIFICATION_TYPE":"U","MEAN_MOTION":15.63003588,"ECCENTRICITY":0.00130657,"INCLINATION":97.2176,"RA_OF_ASC_NODE":236.4833,"ARG_OF_PERICENTER":90.7036,"MEAN_ANOMALY":269.572,"EPHEMERIS_TYPE":0,"NORAD_CAT_ID":46458,"ELEMENT_SET_NO":999,"REV_AT_EPOCH":32251,"BSTAR":0.00099505793,"MEAN_MOTION_DOT":0.0009131,"MEAN_MOTION_DDOT":0},{"OBJECT_NAME":"JILIN-1 GAOFEN 3G","OBJECT_ID":"2020-065F","EPOCH":"2026-07-05T05:10:16.872384","CLASSIFICATION_TYPE":"U","MEAN_MOTION":15.75035818,"ECCENTRICITY":0.0004861,"INCLINATION":97.2237,"RA_OF_ASC_NODE":243.6373,"ARG_OF_PERICENTER":333.8865,"MEAN_ANOMALY":26.2154,"EPHEMERIS_TYPE":0,"NORAD_CAT_ID":46459,"ELEMENT_SET_NO":999,"REV_AT_EPOCH":32277,"BSTAR":0.0010083574,"MEAN_MOTION_DOT":0.00152039,"MEAN_MOTION_DDOT":0},{"OBJECT_NAME":"JILIN-1 GAOFEN 3H","OBJECT_ID":"2020-065G","EPOCH":"2026-07-05T05:32:17.037600","CLASSIFICATION_TYPE":"U","MEAN_MOTION":15.70800702,"ECCENTRICITY":0.00048063,"INCLINATION":97.2179,"RA_OF_ASC_NODE":239.8628,"ARG_OF_PERICENTER":239.9941,"MEAN_ANOMALY":120.0845,"EPHEMERIS_TYPE":0,"NORAD_CAT_ID":46460,"ELEMENT_SET_NO":999,"REV_AT_EPOCH":32271,"BSTAR":0.001037318,"MEAN_MOTION_DOT":0.00130385,"MEAN_MOTION_DDOT":0},{"OBJECT_NAME":"JILIN-1 GAOFEN 2D","OBJECT_ID":"2021-086A","EPOCH":"2026-07-05T04:13:31.325664","CLASSIFICATION_TYPE":"U","MEAN_MOTION":15.10806597,"ECCENTRICITY":0.00345031,"INCLINATION":97.6497,"RA_OF_ASC_NODE":308.8865,"ARG_OF_PERICENTER":83.7091,"MEAN_ANOMALY":276.8067,"EPHEMERIS_TYPE":0,"NORAD_CAT_ID":49256,"ELEMENT_SET_NO":999,"REV_AT_EPOCH":26343,"BSTAR":0.00042692134,"MEAN_MOTION_DOT":0.00007128,"MEAN_MOTION_DDOT":0},{"OBJECT_NAME":"JILIN-1 GAOFEN 2F","OBJECT_ID":"2021-097A","EPOCH":"2026-07-05T06:50:19.386240","CLASSIFICATION_TYPE":"U","MEAN_MOTION":15.07899893,"ECCENTRICITY":0.00192083,"INCLINATION":97.6729,"RA_OF_ASC_NODE":312.443,"ARG_OF_PERICENTER":161.5012,"MEAN_ANOMALY":198.6918,"EPHEMERIS_TYPE":0,"NORAD_CAT_ID":49338,"ELEMENT_SET_NO":999,"REV_AT_EPOCH":25904,"BSTAR":0.0004202624,"MEAN_MOTION_DOT":0.00006412,"MEAN_MOTION_DDOT":0},{"OBJECT_NAME":"JILIN-1 GAOFEN 3D27","OBJECT_ID":"2022-048B","EPOCH":"2026-07-05T04:04:36.167520","CLASSIFICATION_TYPE":"U","MEAN_MOTION":15.80304935,"ECCENTRICITY":0.00037702,"INCLINATION":97.5721,"RA_OF_ASC_NODE":301.7992,"ARG_OF_PERICENTER":270.2543,"MEAN_ANOMALY":89.8292,"EPHEMERIS_TYPE":0,"NORAD_CAT_ID":52444,"ELEMENT_SET_NO":999,"REV_AT_EPOCH":23231,"BSTAR":0.0011767082,"MEAN_MOTION_DOT":0.00225952,"MEAN_MOTION_DDOT":0},{"OBJECT_NAME":"JILIN-1 GAOFEN 3D28","OBJECT_ID":"2022-048C","EPOCH":"2026-07-05T04:37:07.979808","CLASSIFICATION_TYPE":"U","MEAN_MOTION":15.84472033,"ECCENTRICITY":0.0003577,"INCLINATION":97.567,"RA_OF_ASC_NODE":302.0597,"ARG_OF_PERICENTER":258.5715,"MEAN_ANOMALY":101.5153,"EPHEMERIS_TYPE":0,"NORAD_CAT_ID":52445,"ELEMENT_SET_NO":999,"REV_AT_EPOCH":23237,"BSTAR":0.0011556812,"MEAN_MOTION_DOT":0.00270537,"MEAN_MOTION_DDOT":0},{"OBJECT_NAME":"JILIN-1 GAOFEN 3D29","OBJECT_ID":"2022-048D","EPOCH":"2026-07-05T06:47:00.573792","CLASSIFICATION_TYPE":"U","MEAN_MOTION":15.80524196,"ECCENTRICITY":0.00034033,"INCLINATION":97.5717,"RA_OF_ASC_NODE":302.2858,"ARG_OF_PERICENTER":242.8336,"MEAN_ANOMALY":117.2585,"EPHEMERIS_TYPE":0,"NORAD_CAT_ID":52446,"ELEMENT_SET_NO":999,"REV_AT_EPOCH":23235,"BSTAR":0.0010128748,"MEAN_MOTION_DOT":0.00195724,"MEAN_MOTION_DDOT":0},{"OBJECT_NAME":"JILIN-1 GAOFEN 3D31","OBJECT_ID":"2022-048F","EPOCH":"2026-07-05T05:52:27.475680","CLASSIFICATION_TYPE":"U","MEAN_MOTION":15.88997802,"ECCENTRICITY":0.00040536,"INCLINATION":97.5702,"RA_OF_ASC_NODE":303.4414,"ARG_OF_PERICENTER":247.6276,"MEAN_ANOMALY":112.4567,"EPHEMERIS_TYPE":0,"NORAD_CAT_ID":52448,"ELEMENT_SET_NO":999,"REV_AT_EPOCH":23244,"BSTAR":0.0011487151,"MEAN_MOTION_DOT":0.0032431,"MEAN_MOTION_DDOT":0.000040402513},{"OBJECT_NAME":"JILIN-1 GAOFEN 03D09","OBJECT_ID":"2022-098B","EPOCH":"2026-07-05T08:08:09.832416","CLASSIFICATION_TYPE":"U","MEAN_MOTION":15.69024088,"ECCENTRICITY":0.00026594,"INCLINATION":97.5619,"RA_OF_ASC_NODE":317.4045,"ARG_OF_PERICENTER":265.8349,"MEAN_ANOMALY":94.2608,"EPHEMERIS_TYPE":0,"NORAD_CAT_ID":53445,"ELEMENT_SET_NO":999,"REV_AT_EPOCH":21747,"BSTAR":0.00074065218,"MEAN_MOTION_DOT":0.00085998,"MEAN_MOTION_DDOT":0},{"OBJECT_NAME":"JILIN-1 GAOFEN 03D43","OBJECT_ID":"2022-098E","EPOCH":"2026-07-05T08:06:16.121376","CLASSIFICATION_TYPE":"U","MEAN_MOTION":15.72513838,"ECCENTRICITY":0.00029265,"INCLINATION":97.5603,"RA_OF_ASC_NODE":318.5083,"ARG_OF_PERICENTER":256.8885,"MEAN_ANOMALY":103.2052,"EPHEMERIS_TYPE":0,"NORAD_CAT_ID":53448,"ELEMENT_SET_NO":999,"REV_AT_EPOCH":21754,"BSTAR":0.00077509463,"MEAN_MOTION_DOT":0.00104287,"MEAN_MOTION_DDOT":0},{"OBJECT_NAME":"JILIN-1 GAOFEN 03D08","OBJECT_ID":"2022-155A","EPOCH":"2026-07-05T07:37:24.235104","CLASSIFICATION_TYPE":"U","MEAN_MOTION":15.6657942,"ECCENTRICITY":0.00036858,"INCLINATION":97.6228,"RA_OF_ASC_NODE":333.1908,"ARG_OF_PERICENTER":263.1004,"MEAN_ANOMALY":96.9837,"EPHEMERIS_TYPE":0,"NORAD_CAT_ID":54251,"ELEMENT_SET_NO":999,"REV_AT_EPOCH":20265,"BSTAR":0.00068990015,"MEAN_MOTION_DOT":0.00072435,"MEAN_MOTION_DDOT":0}]}
